MOLNIYA 2-9             
1 07276U 74026A   22254.89793969  .00000090  00000+0  00000+0 0  9993
2 07276  64.2805 215.1278 6446536 280.2561  17.4761  2.45097639251507
MOLNIYA 2-10            
1 07376U 74056A   22252.92309922 -.00000861  00000+0  00000+0 0  9998
2 07376  64.2228  86.0286 6742710 286.0511  13.6417  2.01093902352052
MOLNIYA 1-S             
1 07392U 74060A   22255.83832862  .00000017  00000+0  00000+0 0  9990
2 07392   4.9016 281.6273 0011748 213.2167 221.8728  1.00203878120401
MOLNIYA 1-29            
1 07780U 75036A   22254.91026516  .00000001  00000+0 -27091-1 0  9999
2 07780  63.4156 205.6265 6874609 288.5268  12.0893  2.00623168347357
MOLNIYA 2-14            
1 08195U 75081A   22255.76753944 -.00001012  00000+0  00000+0 0  9998
2 08195  63.3876 178.6331 6781887 292.7266  11.6299  2.02095905344658
MOLNIYA 1-32            
1 08601U 76006A   22256.00535773 -.00001495  00000+0  27297-2 0  9999
2 08601  63.4824 285.4597 7229360 283.8735  11.1713  2.00021977340750
MOLNIYA 1-36            
1 09880U 77021A   22255.03942454 -.00000447  00000+0  00000+0 0  9993
2 09880  63.5049 257.2044 7153300 289.6662  10.1963  2.00903745231103
MOLNIYA 3-8             
1 10455U 77105A   22255.26018724 -.00000827  00000+0  18894-2 0  9990
2 10455  63.4089 344.6695 7365052 282.3020  10.9090  2.00819743328881
MOLNIYA 1-40            
1 10925U 78055A   22255.45451200  .00000226  00000+0  00000+0 0  9997
2 10925  63.4095  35.7653 7265711 280.6842  11.8703  2.00729707324423
MOLNIYA 3-10            
1 11057U 78095A   22255.69349308  .00000228  00000+0  12590-2 0  9991
2 11057  63.1917   7.1266 5789552 310.9742  11.7655  4.09854918387306
MOLNIYA 3-13            
1 11896U 80063A   22254.69649406  .00000222  00000+0  00000+0 0  9995
2 11896  62.7122 126.4180 7111994 276.3876  14.0130  2.00663177308822
MOLNIYA 1-49            
1 12156U 81009A   22254.72768106 -.00001004  00000+0  40569-3 0  9997
2 12156  61.6954 152.3874 7281245 263.5543  16.9998  2.05712114223265
MOLNIYA 1-52            
1 13012U 81123A   22254.57275641  .00000028  00000+0 -57357-2 0  9993
2 13012  61.6969 266.3529 7232451 255.9570  20.6497  2.00375838298302
MOLNIYA 1-53            
1 13070U 82015A   22255.80560974 -.00001188  00000+0 -49107-2 0  9994
2 13070  62.6162 203.4501 7021299 282.8799  12.7101  2.00710397297005
MOLNIYA 3-20            
1 13875U 83015A   22252.35377794  .00001548  00000+0  27955-2 0  9996
2 13875  62.6979 339.5016 7401245 258.8270  17.8436  2.00540293225392
MOLNIYA 1-56            
1 13890U 83019A   22254.21283796 -.00001636  00000+0  34089-3 0  9998
2 13890  62.9577   4.3427 7452002 264.8052  15.1757  1.99924026288316
MOLNIYA 1-63            
1 15429U 84124A   22251.72182442  .00000706  00000+0  00000+0 0  9993
2 15429  63.7570 159.8291 6652620 259.1415 297.7121  2.00841180276424
MOLNIYA 3-24            
1 15738U 85040A   22254.61457031 -.00000041  00000+0  00000+0 0  9997
2 15738  63.6592  66.7032 6826148 247.2513  30.6194  2.55627447306071
MOLNIYA 3-27            
1 16393U 85117A   22255.79849411 -.00000075  00000+0  00000+0 0  9994
2 16393  64.3812  70.1060 7004400 247.9170  27.9745  2.12396851276036
MOLNIYA 1-69            
1 17078U 86089A   22252.09822193  .00000144  00000+0  00000+0 0  9998
2 17078  63.9882 178.6552 6656786 257.5472  25.9101  2.00675996262508
MOLNIYA 3-31            
1 17328U 87008A   22253.69628546  .00000445  00000+0  00000+0 0  9995
2 17328  63.6939 118.5518 7063477 253.6710  23.7321  2.00628785257578
MOLNIYA 1-71            
1 18946U 88017A   22254.63516477 -.00000253  00000+0  00000+0 0  9995
2 18946  63.3991 112.2030 7176987 256.3784  21.1221  2.00631715252788
MOLNIYA 1-75            
1 19807U 89014A   22251.86634108 -.00000005  00000+0  00000+0 0  9999
2 19807  64.0401 275.4582 6840284 266.6751  19.6028  2.00582158245671
MOLNIYA 1-80            
1 21118U 91012A   22255.84383877  .00000219  00000+0  00000+0 0  9990
2 21118  65.1941 323.4275 6779674 276.5149  16.4684  2.05243548232781
MOLNIYA 3-40            
1 21196U 91022A   22256.01761788 -.00000130  00000+0  00000+0 0  9991
2 21196  65.1032 317.0334 6808763 273.3176  17.3436  2.02995506231431
MOLNIYA 1-81            
1 21426U 91043A   22256.26050402 -.00000082  00000+0  00000+0 0  9997
2 21426  64.0899 332.9236 7093253 266.5267  17.5380  2.00636218228907
MOLNIYA 3-41            
1 21706U 91065A   22255.99633412  .00001106  00000+0  00000+0 0  9996
2 21706  64.0948 156.5094 6860633 255.0910  25.1334  2.04340259228710
MOLNIYA 3-42            
1 22178U 92067A   22255.89649134  .00000155  00000+0  00000+0 0  9993
2 22178  64.6741 206.7462 6423867 265.6609  23.8886  2.20435684226444
MOLNIYA 1-86            
1 22671U 93035A   22255.78731754  .00000510  00000+0  69018-3 0  9998
2 22671  63.0775 186.1564 4862280   8.4239 357.4421  5.62706325357215
MOLNIYA 1-87            
1 22949U 93079A   22253.83027045  .00000532  00000+0  00000+0 0  9995
2 22949  64.0264  82.4761 6885752 283.8918  13.3491  2.02846003 76669
MOLNIYA 1-88            
1 23420U 94081A   22255.78977421  .00000081  00000+0  00000+0 0  9991
2 23420  64.2770 176.4556 5799112 281.4559  21.9735  3.34496978116627
MOLNIYA 3-47            
1 23642U 95042A   22255.41873464 -.00001319  00000+0  00000+0 0  9993
2 23642  64.1542  64.0081 6935272 284.1277  12.9893  2.01959514198775
MOLNIYA 1-90            
1 24960U 97054A   22255.63964600  .00000074  00000+0 -17395-2 0  9994
2 24960  63.6477 142.9200 6108019 298.1167  13.9233  3.18687513210784
MOLNIYA 1-91            
1 25485U 98054A   22255.46783598  .00000154  00000+0  22925-2 0  9997
2 25485  63.0453 136.6792 6772373 291.8886 313.4081  2.36442702180434
MOLNIYA 3-50            
1 25847U 99036A   22254.24236356  .00000158  00000+0  44120-3 0  9996
2 25847  63.2299 321.1939 7370613 282.1899  10.8622  2.00665591169833
